{"fetched_at":"2026-03-30T06:02:59Z","count":15439,"tles":[{"name":"STARLINK-33579","line1":"1 62764U 25015G   26087.81075833  .00041185  00000+0  13946-2 0  9999","line2":"2 62764  53.1589 233.2879 0001094  89.0156 271.0970 15.30208999 67415","category":"Starlink"}]}