{
  "norad_id": 62764,
  "name": "STARLINK-33579",
  "history": [
    {
      "epoch": "2026-03-28T19:27:29.519712Z",
      "apogee_km": 475.9382280689897,
      "perigee_km": 474.43817224917893,
      "latitude_deg": -7.809884132736137e-06,
      "longitude_deg": 115.18903961442005,
      "height_km": 476.0735150885491,
      "semi_major_axis_km": 6853.3252001590845,
      "eccentricity": 0.00010944,
      "inclination_deg": 53.1589,
      "raan_deg": 233.2879,
      "arg_perigee_deg": 89.0156,
      "mean_anomaly_deg": 271.097,
      "mean_motion_rev_day": 15.30208999
    }
  ]
}